NORAD_CAT_ID,OBJECT_NAME,OBJECT_TYPE,EPOCH,MEAN_MOTION,ECCENTRICITY,INCLINATION,RA_OF_ASC_NODE,ARG_OF_PERICENTER,MEAN_ANOMALY,BSTAR,MEAN_MOTION_DOT,MEAN_MOTION_DDOT,TLE_LINE0,TLE_LINE1,TLE_LINE2,SEMIMAJOR_AXIS,PERIOD,APOGEE,PERIGEE,DECAYED
54803.0,STARLINK-5430,PAYLOAD,2023-04-17 04:18:32,15.08836722,0.0001298,53.2171,111.2525,102.2552,257.8586,8.1627e-06,-1.58e-06,0.0,0 STARLINK-5430,1 54803U 22175AX  23107.17953826 -.00000158  00000-0  81627-5 0  9995,2 54803  53.2171 111.2525 0001298 102.2552 257.8586 15.08836722 18119,6917.89,95.438,540.653,538.857,0.0
54803.0,STARLINK-5430,PAYLOAD,2023-04-17 05:53:55,15.08837712,0.0001306,53.2171,110.9552,102.2153,257.8985,1.5409e-05,-4.3e-07,0.0,0 STARLINK-5430,1 54803U 22175AX  23107.24577753 -.00000043  00000-0  15409-4 0  9991,2 54803  53.2171 110.9552 0001306 102.2153 257.8985 15.08837712 20286,6917.887,95.438,540.656,538.849,0.0
54803.0,STARLINK-5430,PAYLOAD,2023-04-17 17:01:36,15.08841055,0.0001324,53.2172,108.874,108.587,251.5266,4.8693e-05,4.87e-06,0.0,0 STARLINK-5430,1 54803U 22175AX  23107.70945501  .00000487  00000-0  48693-4 0  9994,2 54803  53.2172 108.8740 0001324 108.5870 251.5266 15.08841055 20353,6917.877,95.437,540.658,538.826,0.0
54803.0,STARLINK-5430,PAYLOAD,2023-04-18 08:55:28,15.08841441,0.0001373,53.2175,105.9006,100.0754,260.0393,0.0001079,1.43e-05,0.0,0 STARLINK-5430,1 54803U 22175AX  23108.37185663  .00001430  00000-0  10790-3 0  9998,2 54803  53.2175 105.9006 0001373 100.0754 260.0393 15.08841441 20457,6917.876,95.437,540.691,538.791,0.0
54803.0,STARLINK-5430,PAYLOAD,2023-04-18 16:52:24,15.08834815,5.28e-05,53.2181,104.4144,154.7369,205.3649,-3.03e-06,-3.36e-06,0.0,0 STARLINK-5430,1 54803U 22175AX  23108.70305838 -.00000336  00000-0 -30300-5 0  9990,2 54803  53.2181 104.4144 0000528 154.7369 205.3649 15.08834815 18348,6917.896,95.438,540.127,539.396,0.0
54803.0,STARLINK-5430,PAYLOAD,2023-04-19 07:10:52,15.08841858,0.000138,53.2163,101.7374,96.1553,263.9596,0.0001521,2.134e-05,0.0,0 STARLINK-5430,1 54803U 22175AX  23109.29921810  .00002134  00000-0  15210-3 0  9996,2 54803  53.2163 101.7374 0001380  96.1553 263.9596 15.08841858 20590,6917.875,95.437,540.694,538.785,0.0
54803.0,STARLINK-5430,PAYLOAD,2023-04-19 16:43:11,15.08840508,0.0001371,53.2167,99.9534,94.7785,265.3364,0.00011081,1.476e-05,0.0,0 STARLINK-5430,1 54803U 22175AX  23109.69665967  .00001476  00000-0  11081-3 0  9998,2 54803  53.2167  99.9534 0001371  94.7785 265.3364 15.08840508 20658,6917.879,95.438,540.692,538.795,0.0
54803.0,STARLINK-5430,PAYLOAD,2023-04-20 05:26:16,15.0884782,0.000133,53.2164,97.5741,95.3574,264.757,0.00021868,3.195e-05,0.0,0 STARLINK-5430,1 54803U 22175AX  23110.22657596  .00003195  00000-0  21868-3 0  9992,2 54803  53.2164  97.5741 0001330  95.3574 264.7570 15.08847820 20732,6917.856,95.437,540.642,538.801,0.0
54803.0,STARLINK-5430,PAYLOAD,2023-04-20 16:33:58,15.08840563,0.0001162,53.2166,95.4926,86.952,273.1605,9.6699e-05,1.251e-05,0.0,0 STARLINK-5430,1 54803U 22175AX  23110.69025862  .00001251  00000-0  96699-4 0  9994,2 54803  53.2166  95.4926 0001162  86.9520 273.1605 15.08840563 18643,6917.879,95.438,540.548,538.94,0.0
54803.0,STARLINK-5430,PAYLOAD,2023-04-21 05:17:04,15.08833523,0.0001356,53.2171,93.1136,93.9453,266.1694,6.9525e-06,-1.77e-06,0.0,0 STARLINK-5430,1 54803U 22175AX  23111.22018569 -.00000177  00000-0  69525-5 0  9996,2 54803  53.2171  93.1136 0001356  93.9453 266.1694 15.08833523 20882,6917.9,95.438,540.703,538.827,0.0
54803.0,STARLINK-5430,PAYLOAD,2023-04-21 22:46:18,15.08846114,0.0001258,53.2171,89.843,89.8293,270.2843,0.00019389,2.8e-05,0.0,0 STARLINK-5430,1 54803U 22175AX  23111.94882042  .00002800  00000-0  19389-3 0  9995,2 54803  53.2171  89.8430 0001258  89.8293 270.2843 15.08846114 18832,6917.862,95.437,540.597,538.856,0.0
54803.0,STARLINK-5430,PAYLOAD,2023-04-23 04:58:37,15.08843172,0.000144,53.2172,84.1896,87.9848,272.1309,0.00013332,1.835e-05,0.0,0 STARLINK-5430,1 54803U 22175AX  23113.20737765  .00001835  00000-0  13332-3 0  9996,2 54803  53.2172  84.1896 0001440  87.9848 272.1309 15.08843172 19026,6917.871,95.437,540.732,538.74,0.0
54803.0,STARLINK-5430,PAYLOAD,2023-04-23 06:34:00,15.08841902,0.0001287,53.2171,83.8925,83.9798,276.134,0.00014854,2.077e-05,0.0,0 STARLINK-5430,1 54803U 22175AX  23113.27361904  .00002077  00000-0  14854-3 0  9990,2 54803  53.2171  83.8925 0001287  83.9798 276.1340 15.08841902 21192,6917.875,95.437,540.63,538.849,0.0
54803.0,STARLINK-5430,PAYLOAD,2023-04-24 08:00:10,15.08863281,0.0001319,53.2183,79.1371,91.0238,269.0905,0.00045245,6.925e-05,0.0,0 STARLINK-5430,1 54803U 22175AX  23114.33344929  .00006925  00000-0  45245-3 0  9990,2 54803  53.2183  79.1371 0001319  91.0238 269.0905 15.08863281 19192,6917.809,95.436,540.587,538.762,0.0
54803.0,STARLINK-5430,PAYLOAD,2023-04-25 03:04:48,15.08840761,0.000133,53.2177,75.5699,91.793,268.3214,0.00030863,4.627e-05,0.0,0 STARLINK-5430,1 54803U 22175AX  23115.12833404  .00004627  00000-0  30863-3 0  9996,2 54803  53.2177  75.5699 0001330  91.7930 268.3214 15.08840761 19314,6917.878,95.438,540.663,538.823,0.0
54803.0,STARLINK-5430,PAYLOAD,2023-04-25 06:15:33,15.08853436,0.0001456,53.218,74.9748,87.0979,273.0179,0.00013082,1.795e-05,0.0,0 STARLINK-5430,1 54803U 22175AX  23115.26080649  .00001795  00000-0  13082-3 0  9993,2 54803  53.2180  74.9748 0001456  87.0979 273.0179 15.08853436 21494,6917.839,95.437,540.712,538.697,0.0
54803.0,STARLINK-5430,PAYLOAD,2023-04-26 06:06:23,15.08823264,0.0001098,53.2192,70.5156,85.7041,274.4077,-0.0002136,-3.684e-05,0.0,0 STARLINK-5430,1 54803U 22175AX  23116.25444139 -.00003684  00000-0 -21360-3 0  9990,2 54803  53.2192  70.5156 0001098  85.7041 274.4077 15.08823264 21644,6917.932,95.439,540.556,539.037,0.0
54803.0,STARLINK-5430,PAYLOAD,2023-04-27 02:46:24,15.08832339,0.0001041,53.2183,66.6549,79.2075,280.9034,-7.6868e-05,-1.511e-05,0.0,0 STARLINK-5430,1 54803U 22175AX  23117.11555883 -.00001511  00000-0 -76868-4 0  9996,2 54803  53.2183  66.6549 0001041  79.2075 280.9034 15.08832339 19611,6917.904,95.438,540.489,539.049,0.0
54803.0,STARLINK-5430,PAYLOAD,2023-04-27 05:57:10,15.08831992,0.0001186,53.2201,66.0567,87.3827,272.7301,-8.6191e-05,-1.659e-05,0.0,0 STARLINK-5430,1 54803U 22175AX  23117.24803876 -.00001659  00000-0 -86191-4 0  9991,2 54803  53.2201  66.0567 0001186  87.3827 272.7301 15.08831992 21793,6917.905,95.438,540.59,538.949,0.0
54803.0,STARLINK-5430,PAYLOAD,2023-04-28 02:37:09,15.08844665,0.0001405,53.2199,62.1924,109.357,250.7575,0.00036765,5.569e-05,0.0,0 STARLINK-5430,1 54803U 22175AX  23118.10914203  .00005569  00000-0  36765-3 0  9997,2 54803  53.2199  62.1924 0001405 109.3570 250.7575 15.08844665 19761,6917.866,95.437,540.703,538.759,0.0
54803.0,STARLINK-5430,PAYLOAD,2023-04-28 05:47:55,15.08847011,0.0001421,53.2207,61.5907,83.3161,276.7993,0.00037021,5.61e-05,0.0,0 STARLINK-5430,1 54803U 22175AX  23118.24161953  .00005610  00000-0  37021-3 0  9991,2 54803  53.2207  61.5907 0001421  83.3161 276.7993 15.08847011 21943,6917.859,95.437,540.707,538.741,0.0
54803.0,STARLINK-5430,PAYLOAD,2023-04-28 13:44:52,15.08839068,0.0001188,53.2195,60.1118,70.9976,289.1145,0.00024835,3.667e-05,0.0,0 STARLINK-5430,1 54803U 22175AX  23118.57282951  .00003667  00000-0  24835-3 0  9998,2 54803  53.2195  60.1118 0001188  70.9976 289.1145 15.08839068 19839,6917.883,95.438,540.57,538.926,0.0
54803.0,STARLINK-5430,PAYLOAD,2023-04-29 05:38:43,15.08842732,0.0001307,53.2202,57.1343,101.9035,258.2103,0.00010922,1.451e-05,0.0,0 STARLINK-5430,1 54803U 22175AX  23119.23522987  .00001451  00000-0  10922-3 0  9999,2 54803  53.2202  57.1343 0001307 101.9035 258.2103 15.08842732 22093,6917.872,95.437,540.641,538.833,0.0
54803.0,STARLINK-5430,PAYLOAD,2023-04-30 03:54:07,15.08850474,0.000132,53.2191,52.9697,109.3174,250.7961,-0.00012276,-2.242e-05,0.0,0 STARLINK-5430,1 54803U 22175AX  23120.16258688 -.00002242  00000-0 -12276-3 0  9992,2 54803  53.2191  52.9697 0001320 109.3174 250.7961 15.08850474 20073,6917.848,95.437,540.627,538.8,0.0
54803.0,STARLINK-5430,PAYLOAD,2023-04-30 05:29:30,15.08850168,0.0001335,53.2193,52.6726,108.7407,251.373,-0.00012562,-2.287e-05,0.0,0 STARLINK-5430,1 54803U 22175AX  23120.22882681 -.00002287  00000-0 -12562-3 0  9992,2 54803  53.2193  52.6726 0001335 108.7407 251.3730 15.08850168 22245,6917.849,95.437,540.638,538.791,0.0
54803.0,STARLINK-5430,PAYLOAD,2023-04-30 19:47:59,15.08831622,0.0001444,53.2188,49.9976,108.2081,251.9068,1.1557e-05,-1.04e-06,0.0,0 STARLINK-5430,1 54803U 22175AX  23120.82499509 -.00000104  00000-0  11557-4 0  9990,2 54803  53.2188  49.9976 0001444 108.2081 251.9068 15.08831622 20173,6917.906,95.438,540.77,538.772,0.0
54803.0,STARLINK-5430,PAYLOAD,2023-05-01 02:09:32,15.08833777,0.0001327,53.2197,48.8079,109.745,250.3685,-2.213e-05,-6.4e-06,0.0,0 STARLINK-5430,1 54803U 22175AX  23121.08995600 -.00000640  00000-0 -22130-4 0  9997,2 54803  53.2197  48.8079 0001327 109.7450 250.3685 15.08833777 22376,6917.899,95.438,540.682,538.846,0.0
54803.0,STARLINK-5430,PAYLOAD,2023-05-02 05:11:02,15.08873512,0.0001072,53.2197,43.7523,98.8147,261.2967,0.0003473,5.249e-05,0.0,0 STARLINK-5430,1 54803U 22175AX  23122.21599935  .00005249  00000-0  34730-3 0  9990,2 54803  53.2197  43.7523 0001072  98.8147 261.2967 15.08873512 20386,6917.778,95.435,540.385,538.901,0.0
54803.0,STARLINK-5430,PAYLOAD,2023-05-02 19:29:00,15.09204829,0.0003695,53.2195,41.0762,109.4853,250.6539,0.0029263,0.00047069,0.0,0 STARLINK-5430,1 54803U 22175AX  23122.81181395  .00047069  00000-0  29263-2 0  9993,2 54803  53.2195  41.0762 0003695 109.4853 250.6539 15.09204829 20473,6916.765,95.414,541.186,536.075,0.0
54803.0,STARLINK-5430,PAYLOAD,2023-05-03 05:00:53,15.09458329,0.0001301,53.2195,39.2902,86.8167,273.2975,0.0047906,0.00078115,0.0,0 STARLINK-5430,1 54803U 22175AX  23123.20895551  .00078115  00000-0  47906-2 0  9993,2 54803  53.2195  39.2902 0001301  86.8167 273.2975 15.09458329 20534,6915.991,95.398,538.756,536.956,0.0
